start=new Date('2023-05-25T00:00:00.000Z').valueOf();
sats=[{"FILE":"3916146","ARG_OF_PERICENTER":"92.3080","NORAD_CAT_ID":"47641","MEAN_MOTION":"15.06377054","REF_FRAME":"TEME","OBJECT_NAME":"STARLINK-2019","RCS_SIZE":"LARGE","CENTER_NAME":"EARTH","OBJECT_ID":"2021-012X","MEAN_MOTION_DDOT":"0.0000000000000","REV_AT_EPOCH":"12703","PERIOD":"95.594","MEAN_MOTION_DOT":"0.00020196","LAUNCH_DATE":"2021-02-16","INCLINATION":"53.0535","BSTAR":"0.00137170000000","MEAN_ELEMENT_THEORY":"SGP4","TLE_LINE1":"1 47641U 21012X   23144.52634838  .00020196  00000-0  13717-2 0  9990","EPOCH":"2023-05-24T12:37:56.500032","COUNTRY_CODE":"US","SITE":"AFETR","ECCENTRICITY":"0.00010310","GP_ID":"232418095","TLE_LINE2":"2 47641  53.0535 236.3117 0001031  92.3080 267.8027 15.06377054127038","ELEMENT_SET_NO":"999","CLASSIFICATION_TYPE":"U","PERIAPSIS":"546.570","SEMIMAJOR_AXIS":"6925.419","APOAPSIS":"547.998","DECAY_DATE":null,"TIME_SYSTEM":"UTC","MEAN_ANOMALY":"267.8027","OBJECT_TYPE":"PAYLOAD","EPHEMERIS_TYPE":"0","RA_OF_ASC_NODE":"236.3117"},{"RCS_SIZE":"LARGE","CENTER_NAME":"EARTH","MEAN_MOTION_DDOT":"0.0000000000000","OBJECT_ID":"2021-012Y","FILE":"3916549","ARG_OF_PERICENTER":"50.4303","NORAD_CAT_ID":"47642","MEAN_MOTION":"15.06419688","REF_FRAME":"TEME","OBJECT_NAME":"STARLINK-2020","COUNTRY_CODE":"US","SITE":"AFETR","REV_AT_EPOCH":"12630","PERIOD":"95.591","INCLINATION":"53.0546","LAUNCH_DATE":"2021-02-16","MEAN_MOTION_DOT":"0.00021908","BSTAR":"0.00148430000000","MEAN_ELEMENT_THEORY":"SGP4","TLE_LINE1":"1 47642U 21012Y   23144.65444937  .00021908  00000-0  14843-2 0  9997","EPOCH":"2023-05-24T15:42:24.425568","SEMIMAJOR_AXIS":"6925.288","APOAPSIS":"547.661","ECCENTRICITY":"0.00007330","TLE_LINE2":"2 47642  53.0546 325.7373 0000733  50.4303 309.6750 15.06419688126306","GP_ID":"232448311","ELEMENT_SET_NO":"999","CLASSIFICATION_TYPE":"U","PERIAPSIS":"546.646","EPHEMERIS_TYPE":"0","RA_OF_ASC_NODE":"325.7373","DECAY_DATE":null,"TIME_SYSTEM":"UTC","MEAN_ANOMALY":"309.6750","OBJECT_TYPE":"PAYLOAD"},{"LAUNCH_DATE":"2021-02-16","MEAN_MOTION_DOT":"0.00021614","INCLINATION":"53.0552","PERIOD":"95.589","REV_AT_EPOCH":"12652","EPOCH":"2023-05-24T16:02:58.356672","TLE_LINE1":"1 47643U 21012Z   23144.66873098  .00021614  00000-0  14638-2 0  9999","MEAN_ELEMENT_THEORY":"SGP4","BSTAR":"0.00146380000000","COUNTRY_CODE":"US","SITE":"AFETR","REF_FRAME":"TEME","OBJECT_NAME":"STARLINK-2022","MEAN_MOTION":"15.06443165","NORAD_CAT_ID":"47643","ARG_OF_PERICENTER":"54.5652","FILE":"3916549","MEAN_MOTION_DDOT":"0.0000000000000","OBJECT_ID":"2021-012Z","CENTER_NAME":"EARTH","RCS_SIZE":"LARGE","DECAY_DATE":null,"TIME_SYSTEM":"UTC","OBJECT_TYPE":"PAYLOAD","MEAN_ANOMALY":"305.5435","RA_OF_ASC_NODE":"310.6707","EPHEMERIS_TYPE":"0","TLE_LINE2":"2 47643  53.0552 310.6707 0001045  54.5652 305.5435 15.06443165126523","GP_ID":"232446803","ECCENTRICITY":"0.00010450","PERIAPSIS":"546.358","CLASSIFICATION_TYPE":"U","ELEMENT_SET_NO":"999","APOAPSIS":"547.805","SEMIMAJOR_AXIS":"6925.216"},{"DECAY_DATE":null,"TIME_SYSTEM":"UTC","OBJECT_TYPE":"PAYLOAD","MEAN_ANOMALY":"298.9554","EPHEMERIS_TYPE":"0","RA_OF_ASC_NODE":"330.6124","ECCENTRICITY":"0.00012310","GP_ID":"232447555","TLE_LINE2":"2 47644  53.0548 330.6124 0001231  61.1559 298.9554 15.06435883126256","ELEMENT_SET_NO":"999","CLASSIFICATION_TYPE":"U","PERIAPSIS":"546.251","SEMIMAJOR_AXIS":"6925.239","APOAPSIS":"547.956","REV_AT_EPOCH":"12625","PERIOD":"95.590","LAUNCH_DATE":"2021-02-16","MEAN_MOTION_DOT":"0.00018245","INCLINATION":"53.0548","MEAN_ELEMENT_THEORY":"SGP4","BSTAR":"0.00123940000000","TLE_LINE1":"1 47644U 21012AA  23144.68163356  .00018245  00000-0  12394-2 0  9994","EPOCH":"2023-05-24T16:21:33.139584","COUNTRY_CODE":"US","SITE":"AFETR","FILE":"3916549","NORAD_CAT_ID":"47644","ARG_OF_PERICENTER":"61.1559","MEAN_MOTION":"15.06435883","REF_FRAME":"TEME","OBJECT_NAME":"STARLINK-2026","RCS_SIZE":"LARGE","CENTER_NAME":"EARTH","MEAN_MOTION_DDOT":"0.0000000000000","OBJECT_ID":"2021-012AA"},{"FILE":"3916549","NORAD_CAT_ID":"47645","ARG_OF_PERICENTER":"54.3885","MEAN_MOTION":"15.06433665","REF_FRAME":"TEME","OBJECT_NAME":"STARLINK-2027","RCS_SIZE":"LARGE","CENTER_NAME":"EARTH","OBJECT_ID":"2021-012AB","MEAN_MOTION_DDOT":"0.0000000000000","BSTAR":"0.00163100000000","MEAN_ELEMENT_THEORY":"SGP4","TLE_LINE1":"1 47645U 21012AB  23144.63651207  .00024118  00000-0  16310-2 0  9995","EPOCH":"2023-05-24T15:16:34.642848","REV_AT_EPOCH":"12663","PERIOD":"95.590","LAUNCH_DATE":"2021-02-16","INCLINATION":"53.0538","MEAN_MOTION_DOT":"0.00024118","SITE":"AFETR","COUNTRY_CODE":"US","ELEMENT_SET_NO":"999","CLASSIFICATION_TYPE":"U","PERIAPSIS":"546.923","ECCENTRICITY":"0.00002710","TLE_LINE2":"2 47645  53.0538 301.0555 0000271  54.3885 305.7129 15.06433665126638","GP_ID":"232447563","SEMIMAJOR_AXIS":"6925.245","APOAPSIS":"547.298","MEAN_ANOMALY":"305.7129","OBJECT_TYPE":"PAYLOAD","TIME_SYSTEM":"UTC","DECAY_DATE":null,"EPHEMERIS_TYPE":"0","RA_OF_ASC_NODE":"301.0555"},{"OBJECT_ID":"2021-012AC","MEAN_MOTION_DDOT":"0.0000000000000","CENTER_NAME":"EARTH","RCS_SIZE":"LARGE","OBJECT_NAME":"STARLINK-2028","REF_FRAME":"TEME","MEAN_MOTION":"15.06431709","NORAD_CAT_ID":"47646","ARG_OF_PERICENTER":"94.0216","FILE":"3916549","SITE":"AFETR","COUNTRY_CODE":"US","EPOCH":"2023-05-24T13:21:49.373280","TLE_LINE1":"1 47646U 21012AC  23144.55682145  .00019676  00000-0  13350-2 0  9996","MEAN_ELEMENT_THEORY":"SGP4","BSTAR":"0.00133500000000","LAUNCH_DATE":"2021-02-16","MEAN_MOTION_DOT":"0.00019676","INCLINATION":"53.0536","PERIOD":"95.590","REV_AT_EPOCH":"12711","APOAPSIS":"547.695","SEMIMAJOR_AXIS":"6925.251","PERIAPSIS":"546.537","CLASSIFICATION_TYPE":"U","ELEMENT_SET_NO":"999","GP_ID":"232447811","TLE_LINE2":"2 47646  53.0536 266.4189 0000836  94.0216 266.0868 15.06431709127110","ECCENTRICITY":"0.00008360","RA_OF_ASC_NODE":"266.4189","EPHEMERIS_TYPE":"0","OBJECT_TYPE":"PAYLOAD","MEAN_ANOMALY":"266.0868","DECAY_DATE":null,"TIME_SYSTEM":"UTC"},{"REF_FRAME":"TEME","OBJECT_NAME":"STARLINK-2030","MEAN_MOTION":"15.06440326","ARG_OF_PERICENTER":"64.7858","NORAD_CAT_ID":"47647","FILE":"3916549","OBJECT_ID":"2021-012AD","MEAN_MOTION_DDOT":"0.0000000000000","CENTER_NAME":"EARTH","RCS_SIZE":"LARGE","INCLINATION":"53.0550","LAUNCH_DATE":"2021-02-16","MEAN_MOTION_DOT":"0.00014334","PERIOD":"95.590","REV_AT_EPOCH":"12624","EPOCH":"2023-05-24T15:01:55.666272","TLE_LINE1":"1 47647U 21012AD  23144.62633873  .00014334  00000-0  97816-3 0  9995","MEAN_ELEMENT_THEORY":"SGP4","BSTAR":"0.00097816000000","COUNTRY_CODE":"US","SITE":"AFETR","GP_ID":"232447304","TLE_LINE2":"2 47647  53.0550 330.8597 0001289  64.7858 295.3265 15.06440326126249","ECCENTRICITY":"0.00012890","PERIAPSIS":"546.197","CLASSIFICATION_TYPE":"U","ELEMENT_SET_NO":"999","APOAPSIS":"547.983","SEMIMAJOR_AXIS":"6925.225","DECAY_DATE":null,"TIME_SYSTEM":"UTC","OBJECT_TYPE":"PAYLOAD","MEAN_ANOMALY":"295.3265","RA_OF_ASC_NODE":"330.8597","EPHEMERIS_TYPE":"0"},{"REF_FRAME":"TEME","OBJECT_NAME":"STARLINK-2031","MEAN_MOTION":"15.06437556","NORAD_CAT_ID":"47648","ARG_OF_PERICENTER":"58.9482","FILE":"3916549","MEAN_MOTION_DDOT":"0.0000000000000","OBJECT_ID":"2021-012AE","CENTER_NAME":"EARTH","RCS_SIZE":"LARGE","MEAN_MOTION_DOT":"0.00021403","LAUNCH_DATE":"2021-02-16","INCLINATION":"53.0555","PERIOD":"95.590","REV_AT_EPOCH":"12653","EPOCH":"2023-05-24T16:24:12.068064","TLE_LINE1":"1 47648U 21012AE  23144.68347301  .00021403  00000-0  14499-2 0  9990","MEAN_ELEMENT_THEORY":"SGP4","BSTAR":"0.00144990000000","COUNTRY_CODE":"US","SITE":"AFETR","GP_ID":"232448056","TLE_LINE2":"2 47648  53.0555 310.6053 0001111  58.9482 301.1616 15.06437556126539","ECCENTRICITY":"0.00011110","PERIAPSIS":"546.329","CLASSIFICATION_TYPE":"U","ELEMENT_SET_NO":"999","APOAPSIS":"547.868","SEMIMAJOR_AXIS":"6925.233","TIME_SYSTEM":"UTC","DECAY_DATE":null,"OBJECT_TYPE":"PAYLOAD","MEAN_ANOMALY":"301.1616","RA_OF_ASC_NODE":"310.6053","EPHEMERIS_TYPE":"0"},{"RA_OF_ASC_NODE":"310.5843","EPHEMERIS_TYPE":"0","DECAY_DATE":null,"TIME_SYSTEM":"UTC","OBJECT_TYPE":"PAYLOAD","MEAN_ANOMALY":"314.1935","APOAPSIS":"547.753","SEMIMAJOR_AXIS":"6925.235","TLE_LINE2":"2 47649  53.0545 310.5843 0000943  45.9132 314.1935 15.06437175126530","GP_ID":"232448064","ECCENTRICITY":"0.00009430","PERIAPSIS":"546.447","CLASSIFICATION_TYPE":"U","ELEMENT_SET_NO":"999","COUNTRY_CODE":"US","SITE":"AFETR","LAUNCH_DATE":"2021-02-16","INCLINATION":"53.0545","MEAN_MOTION_DOT":"0.00021437","PERIOD":"95.590","REV_AT_EPOCH":"12653","EPOCH":"2023-05-24T16:29:30.709536","TLE_LINE1":"1 47649U 21012AF  23144.68716099  .00021437  00000-0  14522-2 0  9999","MEAN_ELEMENT_THEORY":"SGP4","BSTAR":"0.00145220000000","OBJECT_ID":"2021-012AF","MEAN_MOTION_DDOT":"0.0000000000000","CENTER_NAME":"EARTH","RCS_SIZE":"LARGE","REF_FRAME":"TEME","OBJECT_NAME":"STARLINK-2032","MEAN_MOTION":"15.06437175","ARG_OF_PERICENTER":"45.9132","NORAD_CAT_ID":"47649","FILE":"3916549"},{"COUNTRY_CODE":"US","SITE":"AFETR","REV_AT_EPOCH":"12651","PERIOD":"95.588","LAUNCH_DATE":"2021-02-16","INCLINATION":"53.0543","MEAN_MOTION_DOT":"0.00025340","BSTAR":"0.00171110000000","MEAN_ELEMENT_THEORY":"SGP4","TLE_LINE1":"1 47650U 21012AG  23144.67240025  .00025340  00000-0  17111-2 0  9995","EPOCH":"2023-05-24T16:08:15.381600","RCS_SIZE":"LARGE","CENTER_NAME":"EARTH","OBJECT_ID":"2021-012AG","MEAN_MOTION_DDOT":"0.0000000000000","FILE":"3916549","ARG_OF_PERICENTER":"86.1002","NORAD_CAT_ID":"47650","MEAN_MOTION":"15.06462359","OBJECT_NAME":"STARLINK-2033","REF_FRAME":"TEME","EPHEMERIS_TYPE":"0","RA_OF_ASC_NODE":"310.6520","TIME_SYSTEM":"UTC","DECAY_DATE":null,"MEAN_ANOMALY":"274.0075","OBJECT_TYPE":"PAYLOAD","SEMIMAJOR_AXIS":"6925.157","APOAPSIS":"547.560","ECCENTRICITY":"0.00007760","TLE_LINE2":"2 47650  53.0543 310.6520 0000776  86.1002 274.0075 15.06462359126519","GP_ID":"232448312","ELEMENT_SET_NO":"999","CLASSIFICATION_TYPE":"U","PERIAPSIS":"546.485"}];
